{
  "type": "FeatureCollection",
  "features": [
    {
      "type": "Feature",
      "properties": {
        "norad_id": 34998,
        "name": "COSMOS 2251 DEB",
        "group": "cosmos-2251-debris",
        "lat": -69.90116909954932,
        "lon": 49.02323071018418,
        "alt_km": 729.1902498495447,
        "timestamp": "2025-12-03T10:52:57.852099+00:00",
        "meta_object_name": "COSMOS 2251 DEB",
        "meta_object_id": "1993-036AFW",
        "meta_epoch": "2025-12-03T00:27:28.459296",
        "meta_mean_motion": 14.49214927,
        "meta_eccentricity": 0.0020798,
        "meta_inclination": 74.0093,
        "meta_ra_of_asc_node": 178.2428,
        "meta_arg_of_pericenter": 324.9753,
        "meta_mean_anomaly": 187.6358,
        "meta_ephemeris_type": 0,
        "meta_classification_type": "U",
        "meta_norad_cat_id": 34998,
        "meta_element_set_no": 999,
        "meta_rev_at_epoch": 87279,
        "meta_bstar": 0.00066768,
        "meta_mean_motion_dot": 2.523e-05,
        "meta_mean_motion_ddot": 0,
        "tle_line1": "1 34998U 93036AFW 25337.01907939  .00002523  00000+0  66768-3 0  9999",
        "tle_line2": "2 34998  74.0093 178.2428 0020798 324.9753 187.6358 14.49214927872793"
      },
      "geometry": {
        "type": "Point",
        "coordinates": [
          49.02323071018418,
          -69.90116909954932
        ]
      }
    },
    {
      "type": "Feature",
      "properties": {
        "norad_id": 35000,
        "name": "COSMOS 2251 DEB",
        "group": "cosmos-2251-debris",
        "lat": 19.583149760211896,
        "lon": 33.36517371486804,
        "alt_km": 358.68984577992796,
        "timestamp": "2025-12-03T10:52:57.852109+00:00",
        "meta_object_name": "COSMOS 2251 DEB",
        "meta_object_id": "1993-036AFY",
        "meta_epoch": "2025-12-01T03:01:08.937696",
        "meta_mean_motion": 15.64973748,
        "meta_eccentricity": 0.00107373,
        "meta_inclination": 74.0059,
        "meta_ra_of_asc_node": 224.4619,
        "meta_arg_of_pericenter": 189.9912,
        "meta_mean_anomaly": 170.1097,
        "meta_ephemeris_type": 0,
        "meta_classification_type": "U",
        "meta_norad_cat_id": 35000,
        "meta_element_set_no": 999,
        "meta_rev_at_epoch": 88332,
        "meta_bstar": 0.0058109544,
        "meta_mean_motion_dot": 0.00615456,
        "meta_mean_motion_ddot": 0,
        "tle_line1": "1 35000U 93036AFY 25335.12579789  .00615456  00000+0  58110-2 0  9998",
        "tle_line2": "2 35000  74.0059 224.4619 0010737 189.9912 170.1097 15.64973748883323"
      },
      "geometry": {
        "type": "Point",
        "coordinates": [
          33.36517371486804,
          19.583149760211896
        ]
      }
    },
    {
      "type": "Feature",
      "properties": {
        "norad_id": 35012,
        "name": "COSMOS 2251 DEB",
        "group": "cosmos-2251-debris",
        "lat": -3.7427531788041977,
        "lon": 127.99452158984818,
        "alt_km": 738.0295560417271,
        "timestamp": "2025-12-03T10:52:57.852120+00:00",
        "meta_object_name": "COSMOS 2251 DEB",
        "meta_object_id": "1993-036AFZ",
        "meta_epoch": "2025-11-29T10:33:51.837120",
        "meta_mean_motion": 14.45521065,
        "meta_eccentricity": 0.0081636,
        "meta_inclination": 74.0181,
        "meta_ra_of_asc_node": 136.5568,
        "meta_arg_of_pericenter": 279.5143,
        "meta_mean_anomaly": 79.6796,
        "meta_ephemeris_type": 0,
        "meta_classification_type": "U",
        "meta_norad_cat_id": 35012,
        "meta_element_set_no": 999,
        "meta_rev_at_epoch": 87369,
        "meta_bstar": 0.00015191388,
        "meta_mean_motion_dot": 5.29e-06,
        "meta_mean_motion_ddot": 0,
        "tle_line1": "1 35012U 93036AFZ 25333.44018330  .00000529  00000+0  15191-3 0  9996",
        "tle_line2": "2 35012  74.0181 136.5568 0081636 279.5143  79.6796 14.45521065873693"
      },
      "geometry": {
        "type": "Point",
        "coordinates": [
          127.99452158984818,
          -3.7427531788041977
        ]
      }
    },
    {
      "type": "Feature",
      "properties": {
        "norad_id": 35014,
        "name": "COSMOS 2251 DEB",
        "group": "cosmos-2251-debris",
        "lat": -15.99686591562082,
        "lon": -113.55000598622756,
        "alt_km": 645.4707803051415,
        "timestamp": "2025-12-03T10:52:57.852130+00:00",
        "meta_object_name": "COSMOS 2251 DEB",
        "meta_object_id": "1993-036AGB",
        "meta_epoch": "2025-11-29T00:10:14.201184",
        "meta_mean_motion": 14.74716562,
        "meta_eccentricity": 0.00081798,
        "meta_inclination": 73.9988,
        "meta_ra_of_asc_node": 70.4329,
        "meta_arg_of_pericenter": 241.0886,
        "meta_mean_anomaly": 118.9467,
        "meta_ephemeris_type": 0,
        "meta_classification_type": "U",
        "meta_norad_cat_id": 35014,
        "meta_element_set_no": 999,
        "meta_rev_at_epoch": 71134,
        "meta_bstar": 0.0017863262,
        "meta_mean_motion_dot": 0.00011934,
        "meta_mean_motion_ddot": 0,
        "tle_line1": "1 35014U 93036AGB 25333.00710881  .00011934  00000+0  17863-2 0  9999",
        "tle_line2": "2 35014  73.9988  70.4329 0008179 241.0886 118.9467 14.74716562711343"
      },
      "geometry": {
        "type": "Point",
        "coordinates": [
          -113.55000598622756,
          -15.99686591562082
        ]
      }
    },
    {
      "type": "Feature",
      "properties": {
        "norad_id": 35015,
        "name": "COSMOS 2251 DEB",
        "group": "cosmos-2251-debris",
        "lat": 73.699988470544,
        "lon": -27.90171543751593,
        "alt_km": 686.1406525454131,
        "timestamp": "2025-12-03T10:52:57.852141+00:00",
        "meta_object_name": "COSMOS 2251 DEB",
        "meta_object_id": "1993-036AGC",
        "meta_epoch": "2025-12-01T12:49:23.800800",
        "meta_mean_motion": 14.46768601,
        "meta_eccentricity": 0.00742089,
        "meta_inclination": 73.9481,
        "meta_ra_of_asc_node": 255.7738,
        "meta_arg_of_pericenter": 127.6207,
        "meta_mean_anomaly": 48.46,
        "meta_ephemeris_type": 0,
        "meta_classification_type": "U",
        "meta_norad_cat_id": 35015,
        "meta_element_set_no": 999,
        "meta_rev_at_epoch": 65278,
        "meta_bstar": 0.00081419309,
        "meta_mean_motion_dot": 3.023e-05,
        "meta_mean_motion_ddot": 0,
        "tle_line1": "1 35015U 93036AGC 25335.53430325  .00003023  00000+0  81419-3 0  9991",
        "tle_line2": "2 35015  73.9481 255.7738 0074208 127.6207  48.4600 14.46768601652784"
      },
      "geometry": {
        "type": "Point",
        "coordinates": [
          -27.90171543751593,
          73.699988470544
        ]
      }
    },
    {
      "type": "Feature",
      "properties": {
        "norad_id": 35016,
        "name": "COSMOS 2251 DEB",
        "group": "cosmos-2251-debris",
        "lat": 36.13190102249357,
        "lon": 119.41230800634266,
        "alt_km": 768.8133473276994,
        "timestamp": "2025-12-03T10:52:57.852152+00:00",
        "meta_object_name": "COSMOS 2251 DEB",
        "meta_object_id": "1993-036AGD",
        "meta_epoch": "2025-12-01T17:14:22.850592",
        "meta_mean_motion": 14.35019887,
        "meta_eccentricity": 0.01150744,
        "meta_inclination": 73.9296,
        "meta_ra_of_asc_node": 314.7615,
        "meta_arg_of_pericenter": 233.9962,
        "meta_mean_anomaly": 309.1499,
        "meta_ephemeris_type": 0,
        "meta_classification_type": "U",
        "meta_norad_cat_id": 35016,
        "meta_element_set_no": 999,
        "meta_rev_at_epoch": 86624,
        "meta_bstar": 0.00042107515,
        "meta_mean_motion_dot": 1.264e-05,
        "meta_mean_motion_ddot": 0,
        "tle_line1": "1 35016U 93036AGD 25335.71832003  .00001264  00000+0  42108-3 0  9998",
        "tle_line2": "2 35016  73.9296 314.7615 0115074 233.9962 309.1499 14.35019887866249"
      },
      "geometry": {
        "type": "Point",
        "coordinates": [
          119.41230800634266,
          36.13190102249357
        ]
      }
    },
    {
      "type": "Feature",
      "properties": {
        "norad_id": 35018,
        "name": "COSMOS 2251 DEB",
        "group": "cosmos-2251-debris",
        "lat": -9.91424980071902,
        "lon": 122.39504299323795,
        "alt_km": 832.5376982259841,
        "timestamp": "2025-12-03T10:52:57.852163+00:00",
        "meta_object_name": "COSMOS 2251 DEB",
        "meta_object_id": "1993-036AGF",
        "meta_epoch": "2025-12-03T03:54:20.704896",
        "meta_mean_motion": 13.67087707,
        "meta_eccentricity": 0.0348435,
        "meta_inclination": 73.9755,
        "meta_ra_of_asc_node": 125.7528,
        "meta_arg_of_pericenter": 37.0273,
        "meta_mean_anomaly": 325.4344,
        "meta_ephemeris_type": 0,
        "meta_classification_type": "U",
        "meta_norad_cat_id": 35018,
        "meta_element_set_no": 999,
        "meta_rev_at_epoch": 83055,
        "meta_bstar": 0.001039,
        "meta_mean_motion_dot": 1.303e-05,
        "meta_mean_motion_ddot": 0,
        "tle_line1": "1 35018U 93036AGF 25337.16273964  .00001303  00000+0  10390-2 0  9997",
        "tle_line2": "2 35018  73.9755 125.7528 0348435  37.0273 325.4344 13.67087707830556"
      },
      "geometry": {
        "type": "Point",
        "coordinates": [
          122.39504299323795,
          -9.91424980071902
        ]
      }
    }
  ]
}